FENGYUN 1C DEB          
1 31508U 99025BWX 17343.35186630  .00000950  00000-0  39339-3 0  9996
2 31508  98.7999  27.6202 0055848 335.0896  24.7591 14.28150283549575
